[{"OBJECT_NAME":"YAOGAN-33 02","OBJECT_ID":"2022-106A","EPOCH":"2026-03-10T00:11:39.197184","MEAN_MOTION":14.58686207,"ECCENTRICITY":0.00031698,"INCLINATION":98.185,"RA_OF_ASC_NODE":78.3458,"ARG_OF_PERICENTER":101.2556,"MEAN_ANOMALY":258.9,"EPHEMERIS_TYPE":0,"CLASSIFICATION_TYPE":"U","NORAD_CAT_ID":53698,"ELEMENT_SET_NO":999,"REV_AT_EPOCH":18726,"BSTAR":6.2152918e-5,"MEAN_MOTION_DOT":2.44e-6,"MEAN_MOTION_DDOT":0},{"OBJECT_NAME":"SL-16 DEB","OBJECT_ID":"1992-093CW","EPOCH":"2026-03-09T13:15:45.600768","MEAN_MOTION":14.4251548,"ECCENTRICITY":0.0121013,"INCLINATION":71.0338,"RA_OF_ASC_NODE":107.6098,"ARG_OF_PERICENTER":30.2532,"MEAN_ANOMALY":330.5519,"EPHEMERIS_TYPE":0,"CLASSIFICATION_TYPE":"U","NORAD_CAT_ID":22405,"ELEMENT_SET_NO":999,"REV_AT_EPOCH":72021,"BSTAR":0.00013527,"MEAN_MOTION_DOT":4.34e-6,"MEAN_MOTION_DDOT":0}]
